<?xml version="1.0" encoding="UTF-8"?>
<kml xmlns="http://www.opengis.net/kml/2.2">
<Document><name>My document</name>
<description>Content</description>
<Style id="Lump">
<LineStyle><color>CD0000FF</color><width>2</width></LineStyle>
<PolyStyle><color>9AFF0000</color></PolyStyle>
</Style>
<Style id="Path">
<LineStyle><color>FF0000FF</color><width>3</width></LineStyle>
</Style>
<Style id="markerstyle">
<IconStyle><Icon><href>
https://maps.google.com/intl/en_us/mapfiles/ms/micons/red-dot.png
</href></Icon></IconStyle>
</Style>
<Placemark><name>NAME</name>
<description>YES</description>
<styleUrl>#Path</styleUrl>
<LineString>
<tessellate>1</tessellate>
<altitudeMode>clampToGround</altitudeMode>
<coordinates>
125.436880,5.319202
125.728017,5.887759
125.717031,6.330177
125.497305,6.652196
125.552236,6.864940
125.804922,6.837671
126.013662,6.723121
126.063101,6.504857
126.189443,6.226433
126.266348,6.559432
126.370718,6.799490
126.623403,7.251998
126.623403,7.464467
126.584951,7.763927
126.409170,7.889093
126.508047,8.237179
126.403677,8.302412
126.409170,8.557801
126.200430,8.579528
126.156484,8.639272
126.337759,8.813019
126.387197,8.899862
126.277334,9.111454
126.249868,9.328342
126.189443,9.393382
126.107046,9.377123
126.063101,9.442154
126.035635,9.539677
126.090566,9.696740
126.222402,9.745468
126.205923,9.983594
126.129018,10.048507
125.958730,10.102592
125.744497,10.124223
125.706045,10.453917
125.590688,10.518734
125.469839,10.345859
125.453359,10.259385
125.442373,10.043098
125.365469,9.832079
125.348989,9.685910
125.414907,9.409640
125.469839,9.268711
125.486318,9.133149
125.431387,9.040937
125.250112,9.100606
125.173208,9.122301
125.112783,8.899862
124.871084,9.051787
124.744741,9.312080
124.623892,9.279554
124.579946,9.209070
124.728262,8.986684
124.761221,8.823875
124.717275,8.693577
124.722768,8.552369
124.503042,8.639272
124.283315,8.552369
124.211904,8.258925
123.975698,8.215433
123.893301,8.231743
123.843862,8.454579
123.799917,8.617548
123.657095,8.671856
123.569204,8.688147
123.376943,8.747873
123.278066,8.568665
123.030874,8.514342
122.937490,8.367634
122.921011,8.286105
122.942983,8.215433
122.695791,8.171936
122.360708,8.079490
122.184927,7.943501
122.069570,7.774813
122.064077,7.720382
122.014639,7.524376
121.976186,7.339177
121.888296,7.208403
121.904775,6.946740
121.910268,6.794036
121.734487,6.668564
121.910268,6.373853
122.162954,6.384771
122.360708,6.581260
122.261831,6.728576
122.206899,6.837671
122.322256,6.990361
122.322256,7.197503
122.410146,7.420892
122.541982,7.562495
122.635366,7.693165
122.723257,7.693165
122.739736,7.567941
122.750723,7.409998
122.794668,7.268346
122.888052,7.251998
123.052847,7.513484
123.118765,7.475361
123.234121,7.431787
123.371450,7.355522
123.475820,7.371865
123.453848,7.486253
123.431875,7.573386
123.514272,7.671389
123.525259,7.774813
123.712026,7.725826
123.964712,7.589721
124.091055,7.442680
123.986684,7.339177
123.953726,7.055784
123.948232,6.788581
123.986684,6.526688
124.107534,6.253736
124.354726,6.084434
124.766714,5.844044
125.019399,5.822185
125.101797,5.816720
125.228140,5.652750
125.316030,5.510605
125.321523,5.335610
125.425893,5.319202
125.436880,5.319202
</coordinates>
</LineString>
</Placemark>
</Document>
</kml>
